{
  "type": "FeatureCollection",
  "properties": {
    "generator": "raster_plan_preview.py (offline planner, no flight commands)",
    "coordinate_order": "WGS-84 [longitude, latitude]",
    "status": "OK",
    "pass_count": 33,
    "waypoint_count": 66,
    "requested_spacing_m": 0.4,
    "actual_spacing_m": 0.3941904549975994,
    "inset_m": 0.2,
    "path_length_m": 140.1219166421502,
    "estimated_time_s": 700.609583210751,
    "speed_mps": 0.2,
    "max_dist_from_a_m": 13.531355030403834,
    "min_segment_inset_clearance_m": 0.0
  },
  "features": [
    {
      "type": "Feature",
      "properties": {
        "name": "outer safety geofence (as supplied)",
        "role": "outer_geofence",
        "area_m2": 204.264,
        "side_lengths_m": [
          21.44,
          9.677,
          21.176,
          9.505
        ],
        "perimeter_m": 61.798,
        "note": "companion-side only; NOT an ArduPilot FENCE_* fence",
        "stroke": "#9467bd",
        "stroke-width": 3,
        "fill": "#9467bd",
        "fill-opacity": 0.04
      },
      "geometry": {
        "type": "Polygon",
        "coordinates": [
          [
            [
              74.794055,
              13.345931
            ],
            [
              74.794098,
              13.345743
            ],
            [
              74.79401,
              13.345728
            ],
            [
              74.793969,
              13.345914
            ],
            [
              74.794055,
              13.345931
            ]
          ]
        ]
      }
    },
    {
      "type": "Feature",
      "properties": {
        "name": "effective outer geofence (0.50 m inward margin)",
        "role": "outer_geofence_effective",
        "margin_m": 0.5,
        "area_m2": 174.365,
        "note": "this is the boundary the mission actually enforces",
        "stroke": "#8c564b",
        "stroke-width": 2,
        "stroke-dasharray": "6,4",
        "fill": "#8c564b",
        "fill-opacity": 0.03
      },
      "geometry": {
        "type": "Polygon",
        "coordinates": [
          [
            [
              74.794051478,
              13.345925721
            ],
            [
              74.794092444,
              13.345746613
            ],
            [
              74.794013581,
              13.34573317
            ],
            [
              74.793974492,
              13.345910502
            ],
            [
              74.794051478,
              13.345925721
            ]
          ]
        ]
      }
    },
    {
      "type": "Feature",
      "properties": {
        "name": "inner raster polygon (as supplied)",
        "role": "mission_polygon",
        "area_m2": 56.796,
        "perimeter_m": 35.14,
        "stroke": "#d62728",
        "stroke-width": 2,
        "fill": "#d62728",
        "fill-opacity": 0.05
      },
      "geometry": {
        "type": "Polygon",
        "coordinates": [
          [
            [
              74.794012,
              13.345786
            ],
            [
              74.794055,
              13.345794
            ],
            [
              74.794024,
              13.345911
            ],
            [
              74.79399,
              13.345902
            ],
            [
              74.794012,
              13.345786
            ]
          ]
        ]
      }
    },
    {
      "type": "Feature",
      "properties": {
        "name": "outer corner G1",
        "role": "outer_corner",
        "corner": "G1",
        "marker-color": "#9467bd",
        "marker-symbol": "triangle"
      },
      "geometry": {
        "type": "Point",
        "coordinates": [
          74.793969,
          13.345914
        ]
      }
    },
    {
      "type": "Feature",
      "properties": {
        "name": "outer corner G2",
        "role": "outer_corner",
        "corner": "G2",
        "marker-color": "#9467bd",
        "marker-symbol": "triangle"
      },
      "geometry": {
        "type": "Point",
        "coordinates": [
          74.79401,
          13.345728
        ]
      }
    },
    {
      "type": "Feature",
      "properties": {
        "name": "outer corner G3",
        "role": "outer_corner",
        "corner": "G3",
        "marker-color": "#9467bd",
        "marker-symbol": "triangle"
      },
      "geometry": {
        "type": "Point",
        "coordinates": [
          74.794098,
          13.345743
        ]
      }
    },
    {
      "type": "Feature",
      "properties": {
        "name": "outer corner G4",
        "role": "outer_corner",
        "corner": "G4",
        "marker-color": "#9467bd",
        "marker-symbol": "triangle"
      },
      "geometry": {
        "type": "Point",
        "coordinates": [
          74.794055,
          13.345931
        ]
      }
    },
    {
      "type": "Feature",
      "properties": {
        "name": "inset polygon (inward safety inset 0.20 m)",
        "role": "inset_polygon",
        "area_m2": 49.929,
        "stroke": "#1f77b4",
        "stroke-width": 2,
        "fill": "#1f77b4",
        "fill-opacity": 0.08
      },
      "geometry": {
        "type": "Polygon",
        "coordinates": [
          [
            [
              74.794013479,
              13.345788104
            ],
            [
              74.794052721,
              13.345795405
            ],
            [
              74.794022679,
              13.345908788
            ],
            [
              74.793992124,
              13.3459007
            ],
            [
              74.794013479,
              13.345788104
            ]
          ]
        ]
      }
    },
    {
      "type": "Feature",
      "properties": {
        "name": "raster path",
        "role": "raster_path",
        "passes": 33,
        "pass_spacing_m": 0.3942,
        "path_length_m": 140.122,
        "estimated_time_s": 700.6,
        "planning_speed_mps": 0.2,
        "stroke": "#2ca02c",
        "stroke-width": 3
      },
      "geometry": {
        "type": "LineString",
        "coordinates": [
          [
            74.794013148,
            13.345789845
          ],
          [
            74.794052266,
            13.345797123
          ],
          [
            74.794051355,
            13.345800559
          ],
          [
            74.794012488,
            13.345793328
          ],
          [
            74.794011827,
            13.34579681
          ],
          [
            74.794050445,
            13.345803995
          ],
          [
            74.794049535,
            13.345807431
          ],
          [
            74.794011167,
            13.345800292
          ],
          [
            74.794010507,
            13.345803775
          ],
          [
            74.794048624,
            13.345810867
          ],
          [
            74.794047714,
            13.345814302
          ],
          [
            74.794009846,
            13.345807257
          ],
          [
            74.794009186,
            13.34581074
          ],
          [
            74.794046804,
            13.345817738
          ],
          [
            74.794045893,
            13.345821174
          ],
          [
            74.794008525,
            13.345814222
          ],
          [
            74.794007865,
            13.345817704
          ],
          [
            74.794044983,
            13.34582461
          ],
          [
            74.794044072,
            13.345828046
          ],
          [
            74.794007204,
            13.345821187
          ],
          [
            74.794006544,
            13.345824669
          ],
          [
            74.794043162,
            13.345831482
          ],
          [
            74.794042252,
            13.345834917
          ],
          [
            74.794005883,
            13.345828151
          ],
          [
            74.794005223,
            13.345831634
          ],
          [
            74.794041341,
            13.345838353
          ],
          [
            74.794040431,
            13.345841789
          ],
          [
            74.794004563,
            13.345835116
          ],
          [
            74.794003902,
            13.345838598
          ],
          [
            74.794039521,
            13.345845225
          ],
          [
            74.79403861,
            13.345848661
          ],
          [
            74.794003242,
            13.345842081
          ],
          [
            74.794002581,
            13.345845563
          ],
          [
            74.7940377,
            13.345852097
          ],
          [
            74.79403679,
            13.345855533
          ],
          [
            74.794001921,
            13.345849045
          ],
          [
            74.79400126,
            13.345852528
          ],
          [
            74.794035879,
            13.345858968
          ],
          [
            74.794034969,
            13.345862404
          ],
          [
            74.7940006,
            13.34585601
          ],
          [
            74.793999939,
            13.345859492
          ],
          [
            74.794034059,
            13.34586584
          ],
          [
            74.794033148,
            13.345869276
          ],
          [
            74.793999279,
            13.345862975
          ],
          [
            74.793998619,
            13.345866457
          ],
          [
            74.794032238,
            13.345872712
          ],
          [
            74.794031327,
            13.345876148
          ],
          [
            74.793997958,
            13.34586994
          ],
          [
            74.793997298,
            13.345873422
          ],
          [
            74.794030417,
            13.345879584
          ],
          [
            74.794029507,
            13.345883019
          ],
          [
            74.793996637,
            13.345876904
          ],
          [
            74.793995977,
            13.345880387
          ],
          [
            74.794028596,
            13.345886455
          ],
          [
            74.794027686,
            13.345889891
          ],
          [
            74.793995316,
            13.345883869
          ],
          [
            74.793994656,
            13.345887351
          ],
          [
            74.794026776,
            13.345893327
          ],
          [
            74.794025865,
            13.345896763
          ],
          [
            74.793993995,
            13.345890834
          ],
          [
            74.793993335,
            13.345894316
          ],
          [
            74.794024955,
            13.345900199
          ],
          [
            74.794024045,
            13.345903635
          ],
          [
            74.793992675,
            13.345897798
          ],
          [
            74.793999762,
            13.345902722
          ],
          [
            74.794023134,
            13.34590707
          ]
        ]
      }
    },
    {
      "type": "Feature",
      "properties": {
        "name": "WP00 pass 1 pass_start",
        "role": "waypoint",
        "index": 0,
        "pass": 1,
        "kind": "pass_start",
        "direction": "A->B",
        "north_m": 0.428,
        "east_m": 0.124,
        "dist_from_a_m": 0.446,
        "inset_clearance_m": 0.0,
        "polygon_clearance_m": 0.2,
        "marker-color": "#2ca02c",
        "marker-size": "small"
      },
      "geometry": {
        "type": "Point",
        "coordinates": [
          74.794013148,
          13.345789845
        ]
      }
    },
    {
      "type": "Feature",
      "properties": {
        "name": "WP01 pass 1 pass_end",
        "role": "waypoint",
        "index": 1,
        "pass": 1,
        "kind": "pass_end",
        "direction": "A->B",
        "north_m": 1.238,
        "east_m": 4.361,
        "dist_from_a_m": 4.534,
        "inset_clearance_m": 0.0,
        "polygon_clearance_m": 0.2,
        "marker-color": "#2ca02c",
        "marker-size": "small"
      },
      "geometry": {
        "type": "Point",
        "coordinates": [
          74.794052266,
          13.345797123
        ]
      }
    },
    {
      "type": "Feature",
      "properties": {
        "name": "WP02 pass 2 pass_start",
        "role": "waypoint",
        "index": 2,
        "pass": 2,
        "kind": "pass_start",
        "direction": "B->A",
        "north_m": 1.621,
        "east_m": 4.263,
        "dist_from_a_m": 4.56,
        "inset_clearance_m": 0.0,
        "polygon_clearance_m": 0.2,
        "marker-color": "#2ca02c",
        "marker-size": "small"
      },
      "geometry": {
        "type": "Point",
        "coordinates": [
          74.794051355,
          13.345800559
        ]
      }
    },
    {
      "type": "Feature",
      "properties": {
        "name": "WP03 pass 2 pass_end",
        "role": "waypoint",
        "index": 3,
        "pass": 2,
        "kind": "pass_end",
        "direction": "B->A",
        "north_m": 0.816,
        "east_m": 0.053,
        "dist_from_a_m": 0.817,
        "inset_clearance_m": 0.0,
        "polygon_clearance_m": 0.2,
        "marker-color": "#2ca02c",
        "marker-size": "small"
      },
      "geometry": {
        "type": "Point",
        "coordinates": [
          74.794012488,
          13.345793328
        ]
      }
    },
    {
      "type": "Feature",
      "properties": {
        "name": "WP04 pass 3 pass_start",
        "role": "waypoint",
        "index": 4,
        "pass": 3,
        "kind": "pass_start",
        "direction": "A->B",
        "north_m": 1.203,
        "east_m": -0.019,
        "dist_from_a_m": 1.204,
        "inset_clearance_m": 0.0,
        "polygon_clearance_m": 0.2,
        "marker-color": "#2ca02c",
        "marker-size": "small"
      },
      "geometry": {
        "type": "Point",
        "coordinates": [
          74.794011827,
          13.34579681
        ]
      }
    },
    {
      "type": "Feature",
      "properties": {
        "name": "WP05 pass 3 pass_end",
        "role": "waypoint",
        "index": 5,
        "pass": 3,
        "kind": "pass_end",
        "direction": "A->B",
        "north_m": 2.003,
        "east_m": 4.164,
        "dist_from_a_m": 4.621,
        "inset_clearance_m": 0.0,
        "polygon_clearance_m": 0.2,
        "marker-color": "#2ca02c",
        "marker-size": "small"
      },
      "geometry": {
        "type": "Point",
        "coordinates": [
          74.794050445,
          13.345803995
        ]
      }
    },
    {
      "type": "Feature",
      "properties": {
        "name": "WP06 pass 4 pass_start",
        "role": "waypoint",
        "index": 6,
        "pass": 4,
        "kind": "pass_start",
        "direction": "B->A",
        "north_m": 2.386,
        "east_m": 4.065,
        "dist_from_a_m": 4.714,
        "inset_clearance_m": 0.0,
        "polygon_clearance_m": 0.2,
        "marker-color": "#2ca02c",
        "marker-size": "small"
      },
      "geometry": {
        "type": "Point",
        "coordinates": [
          74.794049535,
          13.345807431
        ]
      }
    },
    {
      "type": "Feature",
      "properties": {
        "name": "WP07 pass 4 pass_end",
        "role": "waypoint",
        "index": 7,
        "pass": 4,
        "kind": "pass_end",
        "direction": "B->A",
        "north_m": 1.591,
        "east_m": -0.09,
        "dist_from_a_m": 1.594,
        "inset_clearance_m": 0.0,
        "polygon_clearance_m": 0.2,
        "marker-color": "#2ca02c",
        "marker-size": "small"
      },
      "geometry": {
        "type": "Point",
        "coordinates": [
          74.794011167,
          13.345800292
        ]
      }
    },
    {
      "type": "Feature",
      "properties": {
        "name": "WP08 pass 5 pass_start",
        "role": "waypoint",
        "index": 8,
        "pass": 5,
        "kind": "pass_start",
        "direction": "A->B",
        "north_m": 1.979,
        "east_m": -0.162,
        "dist_from_a_m": 1.985,
        "inset_clearance_m": 0.0,
        "polygon_clearance_m": 0.2,
        "marker-color": "#2ca02c",
        "marker-size": "small"
      },
      "geometry": {
        "type": "Point",
        "coordinates": [
          74.794010507,
          13.345803775
        ]
      }
    },
    {
      "type": "Feature",
      "properties": {
        "name": "WP09 pass 5 pass_end",
        "role": "waypoint",
        "index": 9,
        "pass": 5,
        "kind": "pass_end",
        "direction": "A->B",
        "north_m": 2.768,
        "east_m": 3.967,
        "dist_from_a_m": 4.837,
        "inset_clearance_m": 0.0,
        "polygon_clearance_m": 0.2,
        "marker-color": "#2ca02c",
        "marker-size": "small"
      },
      "geometry": {
        "type": "Point",
        "coordinates": [
          74.794048624,
          13.345810867
        ]
      }
    },
    {
      "type": "Feature",
      "properties": {
        "name": "WP10 pass 6 pass_start",
        "role": "waypoint",
        "index": 10,
        "pass": 6,
        "kind": "pass_start",
        "direction": "B->A",
        "north_m": 3.151,
        "east_m": 3.868,
        "dist_from_a_m": 4.989,
        "inset_clearance_m": 0.0,
        "polygon_clearance_m": 0.2,
        "marker-color": "#2ca02c",
        "marker-size": "small"
      },
      "geometry": {
        "type": "Point",
        "coordinates": [
          74.794047714,
          13.345814302
        ]
      }
    },
    {
      "type": "Feature",
      "properties": {
        "name": "WP11 pass 6 pass_end",
        "role": "waypoint",
        "index": 11,
        "pass": 6,
        "kind": "pass_end",
        "direction": "B->A",
        "north_m": 2.366,
        "east_m": -0.233,
        "dist_from_a_m": 2.378,
        "inset_clearance_m": 0.0,
        "polygon_clearance_m": 0.2,
        "marker-color": "#2ca02c",
        "marker-size": "small"
      },
      "geometry": {
        "type": "Point",
        "coordinates": [
          74.794009846,
          13.345807257
        ]
      }
    },
    {
      "type": "Feature",
      "properties": {
        "name": "WP12 pass 7 pass_start",
        "role": "waypoint",
        "index": 12,
        "pass": 7,
        "kind": "pass_start",
        "direction": "A->B",
        "north_m": 2.754,
        "east_m": -0.305,
        "dist_from_a_m": 2.771,
        "inset_clearance_m": 0.0,
        "polygon_clearance_m": 0.2,
        "marker-color": "#2ca02c",
        "marker-size": "small"
      },
      "geometry": {
        "type": "Point",
        "coordinates": [
          74.794009186,
          13.34581074
        ]
      }
    },
    {
      "type": "Feature",
      "properties": {
        "name": "WP13 pass 7 pass_end",
        "role": "waypoint",
        "index": 13,
        "pass": 7,
        "kind": "pass_end",
        "direction": "A->B",
        "north_m": 3.533,
        "east_m": 3.77,
        "dist_from_a_m": 5.167,
        "inset_clearance_m": 0.0,
        "polygon_clearance_m": 0.2,
        "marker-color": "#2ca02c",
        "marker-size": "small"
      },
      "geometry": {
        "type": "Point",
        "coordinates": [
          74.794046804,
          13.345817738
        ]
      }
    },
    {
      "type": "Feature",
      "properties": {
        "name": "WP14 pass 8 pass_start",
        "role": "waypoint",
        "index": 14,
        "pass": 8,
        "kind": "pass_start",
        "direction": "B->A",
        "north_m": 3.916,
        "east_m": 3.671,
        "dist_from_a_m": 5.367,
        "inset_clearance_m": 0.0,
        "polygon_clearance_m": 0.2,
        "marker-color": "#2ca02c",
        "marker-size": "small"
      },
      "geometry": {
        "type": "Point",
        "coordinates": [
          74.794045893,
          13.345821174
        ]
      }
    },
    {
      "type": "Feature",
      "properties": {
        "name": "WP15 pass 8 pass_end",
        "role": "waypoint",
        "index": 15,
        "pass": 8,
        "kind": "pass_end",
        "direction": "B->A",
        "north_m": 3.142,
        "east_m": -0.376,
        "dist_from_a_m": 3.164,
        "inset_clearance_m": 0.0,
        "polygon_clearance_m": 0.2,
        "marker-color": "#2ca02c",
        "marker-size": "small"
      },
      "geometry": {
        "type": "Point",
        "coordinates": [
          74.794008525,
          13.345814222
        ]
      }
    },
    {
      "type": "Feature",
      "properties": {
        "name": "WP16 pass 9 pass_start",
        "role": "waypoint",
        "index": 16,
        "pass": 9,
        "kind": "pass_start",
        "direction": "A->B",
        "north_m": 3.529,
        "east_m": -0.448,
        "dist_from_a_m": 3.558,
        "inset_clearance_m": 0.0,
        "polygon_clearance_m": 0.2,
        "marker-color": "#2ca02c",
        "marker-size": "small"
      },
      "geometry": {
        "type": "Point",
        "coordinates": [
          74.794007865,
          13.345817704
        ]
      }
    },
    {
      "type": "Feature",
      "properties": {
        "name": "WP17 pass 9 pass_end",
        "role": "waypoint",
        "index": 17,
        "pass": 9,
        "kind": "pass_end",
        "direction": "A->B",
        "north_m": 4.298,
        "east_m": 3.572,
        "dist_from_a_m": 5.589,
        "inset_clearance_m": 0.0,
        "polygon_clearance_m": 0.2,
        "marker-color": "#2ca02c",
        "marker-size": "small"
      },
      "geometry": {
        "type": "Point",
        "coordinates": [
          74.794044983,
          13.34582461
        ]
      }
    },
    {
      "type": "Feature",
      "properties": {
        "name": "WP18 pass 10 pass_start",
        "role": "waypoint",
        "index": 18,
        "pass": 10,
        "kind": "pass_start",
        "direction": "B->A",
        "north_m": 4.681,
        "east_m": 3.474,
        "dist_from_a_m": 5.829,
        "inset_clearance_m": 0.0,
        "polygon_clearance_m": 0.2,
        "marker-color": "#2ca02c",
        "marker-size": "small"
      },
      "geometry": {
        "type": "Point",
        "coordinates": [
          74.794044072,
          13.345828046
        ]
      }
    },
    {
      "type": "Feature",
      "properties": {
        "name": "WP19 pass 10 pass_end",
        "role": "waypoint",
        "index": 19,
        "pass": 10,
        "kind": "pass_end",
        "direction": "B->A",
        "north_m": 3.917,
        "east_m": -0.519,
        "dist_from_a_m": 3.951,
        "inset_clearance_m": 0.0,
        "polygon_clearance_m": 0.2,
        "marker-color": "#2ca02c",
        "marker-size": "small"
      },
      "geometry": {
        "type": "Point",
        "coordinates": [
          74.794007204,
          13.345821187
        ]
      }
    },
    {
      "type": "Feature",
      "properties": {
        "name": "WP20 pass 11 pass_start",
        "role": "waypoint",
        "index": 20,
        "pass": 11,
        "kind": "pass_start",
        "direction": "A->B",
        "north_m": 4.305,
        "east_m": -0.591,
        "dist_from_a_m": 4.345,
        "inset_clearance_m": 0.0,
        "polygon_clearance_m": 0.2,
        "marker-color": "#2ca02c",
        "marker-size": "small"
      },
      "geometry": {
        "type": "Point",
        "coordinates": [
          74.794006544,
          13.345824669
        ]
      }
    },
    {
      "type": "Feature",
      "properties": {
        "name": "WP21 pass 11 pass_end",
        "role": "waypoint",
        "index": 21,
        "pass": 11,
        "kind": "pass_end",
        "direction": "A->B",
        "north_m": 5.063,
        "east_m": 3.375,
        "dist_from_a_m": 6.085,
        "inset_clearance_m": 0.0,
        "polygon_clearance_m": 0.2,
        "marker-color": "#2ca02c",
        "marker-size": "small"
      },
      "geometry": {
        "type": "Point",
        "coordinates": [
          74.794043162,
          13.345831482
        ]
      }
    },
    {
      "type": "Feature",
      "properties": {
        "name": "WP22 pass 12 pass_start",
        "role": "waypoint",
        "index": 22,
        "pass": 12,
        "kind": "pass_start",
        "direction": "B->A",
        "north_m": 5.445,
        "east_m": 3.277,
        "dist_from_a_m": 6.355,
        "inset_clearance_m": 0.0,
        "polygon_clearance_m": 0.2,
        "marker-color": "#2ca02c",
        "marker-size": "small"
      },
      "geometry": {
        "type": "Point",
        "coordinates": [
          74.794042252,
          13.345834917
        ]
      }
    },
    {
      "type": "Feature",
      "properties": {
        "name": "WP23 pass 12 pass_end",
        "role": "waypoint",
        "index": 23,
        "pass": 12,
        "kind": "pass_end",
        "direction": "B->A",
        "north_m": 4.692,
        "east_m": -0.663,
        "dist_from_a_m": 4.739,
        "inset_clearance_m": 0.0,
        "polygon_clearance_m": 0.2,
        "marker-color": "#2ca02c",
        "marker-size": "small"
      },
      "geometry": {
        "type": "Point",
        "coordinates": [
          74.794005883,
          13.345828151
        ]
      }
    },
    {
      "type": "Feature",
      "properties": {
        "name": "WP24 pass 13 pass_start",
        "role": "waypoint",
        "index": 24,
        "pass": 13,
        "kind": "pass_start",
        "direction": "A->B",
        "north_m": 5.08,
        "east_m": -0.734,
        "dist_from_a_m": 5.133,
        "inset_clearance_m": 0.0,
        "polygon_clearance_m": 0.2,
        "marker-color": "#2ca02c",
        "marker-size": "small"
      },
      "geometry": {
        "type": "Point",
        "coordinates": [
          74.794005223,
          13.345831634
        ]
      }
    },
    {
      "type": "Feature",
      "properties": {
        "name": "WP25 pass 13 pass_end",
        "role": "waypoint",
        "index": 25,
        "pass": 13,
        "kind": "pass_end",
        "direction": "A->B",
        "north_m": 5.828,
        "east_m": 3.178,
        "dist_from_a_m": 6.638,
        "inset_clearance_m": 0.0,
        "polygon_clearance_m": 0.2,
        "marker-color": "#2ca02c",
        "marker-size": "small"
      },
      "geometry": {
        "type": "Point",
        "coordinates": [
          74.794041341,
          13.345838353
        ]
      }
    },
    {
      "type": "Feature",
      "properties": {
        "name": "WP26 pass 14 pass_start",
        "role": "waypoint",
        "index": 26,
        "pass": 14,
        "kind": "pass_start",
        "direction": "B->A",
        "north_m": 6.21,
        "east_m": 3.079,
        "dist_from_a_m": 6.932,
        "inset_clearance_m": 0.0,
        "polygon_clearance_m": 0.2,
        "marker-color": "#2ca02c",
        "marker-size": "small"
      },
      "geometry": {
        "type": "Point",
        "coordinates": [
          74.794040431,
          13.345841789
        ]
      }
    },
    {
      "type": "Feature",
      "properties": {
        "name": "WP27 pass 14 pass_end",
        "role": "waypoint",
        "index": 27,
        "pass": 14,
        "kind": "pass_end",
        "direction": "B->A",
        "north_m": 5.468,
        "east_m": -0.806,
        "dist_from_a_m": 5.527,
        "inset_clearance_m": 0.0,
        "polygon_clearance_m": 0.2,
        "marker-color": "#2ca02c",
        "marker-size": "small"
      },
      "geometry": {
        "type": "Point",
        "coordinates": [
          74.794004563,
          13.345835116
        ]
      }
    },
    {
      "type": "Feature",
      "properties": {
        "name": "WP28 pass 15 pass_start",
        "role": "waypoint",
        "index": 28,
        "pass": 15,
        "kind": "pass_start",
        "direction": "A->B",
        "north_m": 5.855,
        "east_m": -0.877,
        "dist_from_a_m": 5.921,
        "inset_clearance_m": 0.0,
        "polygon_clearance_m": 0.2,
        "marker-color": "#2ca02c",
        "marker-size": "small"
      },
      "geometry": {
        "type": "Point",
        "coordinates": [
          74.794003902,
          13.345838598
        ]
      }
    },
    {
      "type": "Feature",
      "properties": {
        "name": "WP29 pass 15 pass_end",
        "role": "waypoint",
        "index": 29,
        "pass": 15,
        "kind": "pass_end",
        "direction": "A->B",
        "north_m": 6.593,
        "east_m": 2.981,
        "dist_from_a_m": 7.235,
        "inset_clearance_m": 0.0,
        "polygon_clearance_m": 0.2,
        "marker-color": "#2ca02c",
        "marker-size": "small"
      },
      "geometry": {
        "type": "Point",
        "coordinates": [
          74.794039521,
          13.345845225
        ]
      }
    },
    {
      "type": "Feature",
      "properties": {
        "name": "WP30 pass 16 pass_start",
        "role": "waypoint",
        "index": 30,
        "pass": 16,
        "kind": "pass_start",
        "direction": "B->A",
        "north_m": 6.975,
        "east_m": 2.882,
        "dist_from_a_m": 7.547,
        "inset_clearance_m": 0.0,
        "polygon_clearance_m": 0.2,
        "marker-color": "#2ca02c",
        "marker-size": "small"
      },
      "geometry": {
        "type": "Point",
        "coordinates": [
          74.79403861,
          13.345848661
        ]
      }
    },
    {
      "type": "Feature",
      "properties": {
        "name": "WP31 pass 16 pass_end",
        "role": "waypoint",
        "index": 31,
        "pass": 16,
        "kind": "pass_end",
        "direction": "B->A",
        "north_m": 6.243,
        "east_m": -0.949,
        "dist_from_a_m": 6.315,
        "inset_clearance_m": 0.0,
        "polygon_clearance_m": 0.2,
        "marker-color": "#2ca02c",
        "marker-size": "small"
      },
      "geometry": {
        "type": "Point",
        "coordinates": [
          74.794003242,
          13.345842081
        ]
      }
    },
    {
      "type": "Feature",
      "properties": {
        "name": "WP32 pass 17 pass_start",
        "role": "waypoint",
        "index": 32,
        "pass": 17,
        "kind": "pass_start",
        "direction": "A->B",
        "north_m": 6.631,
        "east_m": -1.02,
        "dist_from_a_m": 6.709,
        "inset_clearance_m": 0.0,
        "polygon_clearance_m": 0.2,
        "marker-color": "#2ca02c",
        "marker-size": "small"
      },
      "geometry": {
        "type": "Point",
        "coordinates": [
          74.794002581,
          13.345845563
        ]
      }
    },
    {
      "type": "Feature",
      "properties": {
        "name": "WP33 pass 17 pass_end",
        "role": "waypoint",
        "index": 33,
        "pass": 17,
        "kind": "pass_end",
        "direction": "A->B",
        "north_m": 7.358,
        "east_m": 2.784,
        "dist_from_a_m": 7.867,
        "inset_clearance_m": 0.0,
        "polygon_clearance_m": 0.2,
        "marker-color": "#2ca02c",
        "marker-size": "small"
      },
      "geometry": {
        "type": "Point",
        "coordinates": [
          74.7940377,
          13.345852097
        ]
      }
    },
    {
      "type": "Feature",
      "properties": {
        "name": "WP34 pass 18 pass_start",
        "role": "waypoint",
        "index": 34,
        "pass": 18,
        "kind": "pass_start",
        "direction": "B->A",
        "north_m": 7.74,
        "east_m": 2.685,
        "dist_from_a_m": 8.193,
        "inset_clearance_m": 0.0,
        "polygon_clearance_m": 0.2,
        "marker-color": "#2ca02c",
        "marker-size": "small"
      },
      "geometry": {
        "type": "Point",
        "coordinates": [
          74.79403679,
          13.345855533
        ]
      }
    },
    {
      "type": "Feature",
      "properties": {
        "name": "WP35 pass 18 pass_end",
        "role": "waypoint",
        "index": 35,
        "pass": 18,
        "kind": "pass_end",
        "direction": "B->A",
        "north_m": 7.018,
        "east_m": -1.092,
        "dist_from_a_m": 7.103,
        "inset_clearance_m": 0.0,
        "polygon_clearance_m": 0.2,
        "marker-color": "#2ca02c",
        "marker-size": "small"
      },
      "geometry": {
        "type": "Point",
        "coordinates": [
          74.794001921,
          13.345849045
        ]
      }
    },
    {
      "type": "Feature",
      "properties": {
        "name": "WP36 pass 19 pass_start",
        "role": "waypoint",
        "index": 36,
        "pass": 19,
        "kind": "pass_start",
        "direction": "A->B",
        "north_m": 7.406,
        "east_m": -1.163,
        "dist_from_a_m": 7.497,
        "inset_clearance_m": 0.0,
        "polygon_clearance_m": 0.2,
        "marker-color": "#2ca02c",
        "marker-size": "small"
      },
      "geometry": {
        "type": "Point",
        "coordinates": [
          74.79400126,
          13.345852528
        ]
      }
    },
    {
      "type": "Feature",
      "properties": {
        "name": "WP37 pass 19 pass_end",
        "role": "waypoint",
        "index": 37,
        "pass": 19,
        "kind": "pass_end",
        "direction": "A->B",
        "north_m": 8.123,
        "east_m": 2.586,
        "dist_from_a_m": 8.525,
        "inset_clearance_m": 0.0,
        "polygon_clearance_m": 0.2,
        "marker-color": "#2ca02c",
        "marker-size": "small"
      },
      "geometry": {
        "type": "Point",
        "coordinates": [
          74.794035879,
          13.345858968
        ]
      }
    },
    {
      "type": "Feature",
      "properties": {
        "name": "WP38 pass 20 pass_start",
        "role": "waypoint",
        "index": 38,
        "pass": 20,
        "kind": "pass_start",
        "direction": "B->A",
        "north_m": 8.505,
        "east_m": 2.488,
        "dist_from_a_m": 8.862,
        "inset_clearance_m": 0.0,
        "polygon_clearance_m": 0.2,
        "marker-color": "#2ca02c",
        "marker-size": "small"
      },
      "geometry": {
        "type": "Point",
        "coordinates": [
          74.794034969,
          13.345862404
        ]
      }
    },
    {
      "type": "Feature",
      "properties": {
        "name": "WP39 pass 20 pass_end",
        "role": "waypoint",
        "index": 39,
        "pass": 20,
        "kind": "pass_end",
        "direction": "B->A",
        "north_m": 7.793,
        "east_m": -1.235,
        "dist_from_a_m": 7.891,
        "inset_clearance_m": 0.0,
        "polygon_clearance_m": 0.2,
        "marker-color": "#2ca02c",
        "marker-size": "small"
      },
      "geometry": {
        "type": "Point",
        "coordinates": [
          74.7940006,
          13.34585601
        ]
      }
    },
    {
      "type": "Feature",
      "properties": {
        "name": "WP40 pass 21 pass_start",
        "role": "waypoint",
        "index": 40,
        "pass": 21,
        "kind": "pass_start",
        "direction": "A->B",
        "north_m": 8.181,
        "east_m": -1.306,
        "dist_from_a_m": 8.285,
        "inset_clearance_m": 0.0,
        "polygon_clearance_m": 0.2,
        "marker-color": "#2ca02c",
        "marker-size": "small"
      },
      "geometry": {
        "type": "Point",
        "coordinates": [
          74.793999939,
          13.345859492
        ]
      }
    },
    {
      "type": "Feature",
      "properties": {
        "name": "WP41 pass 21 pass_end",
        "role": "waypoint",
        "index": 41,
        "pass": 21,
        "kind": "pass_end",
        "direction": "A->B",
        "north_m": 8.888,
        "east_m": 2.389,
        "dist_from_a_m": 9.203,
        "inset_clearance_m": 0.0,
        "polygon_clearance_m": 0.2,
        "marker-color": "#2ca02c",
        "marker-size": "small"
      },
      "geometry": {
        "type": "Point",
        "coordinates": [
          74.794034059,
          13.34586584
        ]
      }
    },
    {
      "type": "Feature",
      "properties": {
        "name": "WP42 pass 22 pass_start",
        "role": "waypoint",
        "index": 42,
        "pass": 22,
        "kind": "pass_start",
        "direction": "B->A",
        "north_m": 9.27,
        "east_m": 2.291,
        "dist_from_a_m": 9.549,
        "inset_clearance_m": 0.0,
        "polygon_clearance_m": 0.2,
        "marker-color": "#2ca02c",
        "marker-size": "small"
      },
      "geometry": {
        "type": "Point",
        "coordinates": [
          74.794033148,
          13.345869276
        ]
      }
    },
    {
      "type": "Feature",
      "properties": {
        "name": "WP43 pass 22 pass_end",
        "role": "waypoint",
        "index": 43,
        "pass": 22,
        "kind": "pass_end",
        "direction": "B->A",
        "north_m": 8.569,
        "east_m": -1.378,
        "dist_from_a_m": 8.679,
        "inset_clearance_m": 0.0,
        "polygon_clearance_m": 0.2,
        "marker-color": "#2ca02c",
        "marker-size": "small"
      },
      "geometry": {
        "type": "Point",
        "coordinates": [
          74.793999279,
          13.345862975
        ]
      }
    },
    {
      "type": "Feature",
      "properties": {
        "name": "WP44 pass 23 pass_start",
        "role": "waypoint",
        "index": 44,
        "pass": 23,
        "kind": "pass_start",
        "direction": "A->B",
        "north_m": 8.956,
        "east_m": -1.449,
        "dist_from_a_m": 9.073,
        "inset_clearance_m": 0.0,
        "polygon_clearance_m": 0.2,
        "marker-color": "#2ca02c",
        "marker-size": "small"
      },
      "geometry": {
        "type": "Point",
        "coordinates": [
          74.793998619,
          13.345866457
        ]
      }
    },
    {
      "type": "Feature",
      "properties": {
        "name": "WP45 pass 23 pass_end",
        "role": "waypoint",
        "index": 45,
        "pass": 23,
        "kind": "pass_end",
        "direction": "A->B",
        "north_m": 9.653,
        "east_m": 2.192,
        "dist_from_a_m": 9.898,
        "inset_clearance_m": 0.0,
        "polygon_clearance_m": 0.2,
        "marker-color": "#2ca02c",
        "marker-size": "small"
      },
      "geometry": {
        "type": "Point",
        "coordinates": [
          74.794032238,
          13.345872712
        ]
      }
    },
    {
      "type": "Feature",
      "properties": {
        "name": "WP46 pass 24 pass_start",
        "role": "waypoint",
        "index": 46,
        "pass": 24,
        "kind": "pass_start",
        "direction": "B->A",
        "north_m": 10.035,
        "east_m": 2.093,
        "dist_from_a_m": 10.251,
        "inset_clearance_m": 0.0,
        "polygon_clearance_m": 0.2,
        "marker-color": "#2ca02c",
        "marker-size": "small"
      },
      "geometry": {
        "type": "Point",
        "coordinates": [
          74.794031327,
          13.345876148
        ]
      }
    },
    {
      "type": "Feature",
      "properties": {
        "name": "WP47 pass 24 pass_end",
        "role": "waypoint",
        "index": 47,
        "pass": 24,
        "kind": "pass_end",
        "direction": "B->A",
        "north_m": 9.344,
        "east_m": -1.521,
        "dist_from_a_m": 9.467,
        "inset_clearance_m": 0.0,
        "polygon_clearance_m": 0.2,
        "marker-color": "#2ca02c",
        "marker-size": "small"
      },
      "geometry": {
        "type": "Point",
        "coordinates": [
          74.793997958,
          13.34586994
        ]
      }
    },
    {
      "type": "Feature",
      "properties": {
        "name": "WP48 pass 25 pass_start",
        "role": "waypoint",
        "index": 48,
        "pass": 25,
        "kind": "pass_start",
        "direction": "A->B",
        "north_m": 9.732,
        "east_m": -1.592,
        "dist_from_a_m": 9.861,
        "inset_clearance_m": 0.0,
        "polygon_clearance_m": 0.2,
        "marker-color": "#2ca02c",
        "marker-size": "small"
      },
      "geometry": {
        "type": "Point",
        "coordinates": [
          74.793997298,
          13.345873422
        ]
      }
    },
    {
      "type": "Feature",
      "properties": {
        "name": "WP49 pass 25 pass_end",
        "role": "waypoint",
        "index": 49,
        "pass": 25,
        "kind": "pass_end",
        "direction": "A->B",
        "north_m": 10.418,
        "east_m": 1.995,
        "dist_from_a_m": 10.607,
        "inset_clearance_m": 0.0,
        "polygon_clearance_m": 0.2,
        "marker-color": "#2ca02c",
        "marker-size": "small"
      },
      "geometry": {
        "type": "Point",
        "coordinates": [
          74.794030417,
          13.345879584
        ]
      }
    },
    {
      "type": "Feature",
      "properties": {
        "name": "WP50 pass 26 pass_start",
        "role": "waypoint",
        "index": 50,
        "pass": 26,
        "kind": "pass_start",
        "direction": "B->A",
        "north_m": 10.8,
        "east_m": 1.896,
        "dist_from_a_m": 10.965,
        "inset_clearance_m": 0.0,
        "polygon_clearance_m": 0.2,
        "marker-color": "#2ca02c",
        "marker-size": "small"
      },
      "geometry": {
        "type": "Point",
        "coordinates": [
          74.794029507,
          13.345883019
        ]
      }
    },
    {
      "type": "Feature",
      "properties": {
        "name": "WP51 pass 26 pass_end",
        "role": "waypoint",
        "index": 51,
        "pass": 26,
        "kind": "pass_end",
        "direction": "B->A",
        "north_m": 10.119,
        "east_m": -1.664,
        "dist_from_a_m": 10.255,
        "inset_clearance_m": 0.0,
        "polygon_clearance_m": 0.2,
        "marker-color": "#2ca02c",
        "marker-size": "small"
      },
      "geometry": {
        "type": "Point",
        "coordinates": [
          74.793996637,
          13.345876904
        ]
      }
    },
    {
      "type": "Feature",
      "properties": {
        "name": "WP52 pass 27 pass_start",
        "role": "waypoint",
        "index": 52,
        "pass": 27,
        "kind": "pass_start",
        "direction": "A->B",
        "north_m": 10.507,
        "east_m": -1.736,
        "dist_from_a_m": 10.649,
        "inset_clearance_m": 0.0,
        "polygon_clearance_m": 0.2,
        "marker-color": "#2ca02c",
        "marker-size": "small"
      },
      "geometry": {
        "type": "Point",
        "coordinates": [
          74.793995977,
          13.345880387
        ]
      }
    },
    {
      "type": "Feature",
      "properties": {
        "name": "WP53 pass 27 pass_end",
        "role": "waypoint",
        "index": 53,
        "pass": 27,
        "kind": "pass_end",
        "direction": "A->B",
        "north_m": 11.183,
        "east_m": 1.798,
        "dist_from_a_m": 11.326,
        "inset_clearance_m": 0.0,
        "polygon_clearance_m": 0.2,
        "marker-color": "#2ca02c",
        "marker-size": "small"
      },
      "geometry": {
        "type": "Point",
        "coordinates": [
          74.794028596,
          13.345886455
        ]
      }
    },
    {
      "type": "Feature",
      "properties": {
        "name": "WP54 pass 28 pass_start",
        "role": "waypoint",
        "index": 54,
        "pass": 28,
        "kind": "pass_start",
        "direction": "B->A",
        "north_m": 11.565,
        "east_m": 1.699,
        "dist_from_a_m": 11.689,
        "inset_clearance_m": 0.0,
        "polygon_clearance_m": 0.2,
        "marker-color": "#2ca02c",
        "marker-size": "small"
      },
      "geometry": {
        "type": "Point",
        "coordinates": [
          74.794027686,
          13.345889891
        ]
      }
    },
    {
      "type": "Feature",
      "properties": {
        "name": "WP55 pass 28 pass_end",
        "role": "waypoint",
        "index": 55,
        "pass": 28,
        "kind": "pass_end",
        "direction": "B->A",
        "north_m": 10.895,
        "east_m": -1.807,
        "dist_from_a_m": 11.044,
        "inset_clearance_m": 0.0,
        "polygon_clearance_m": 0.2,
        "marker-color": "#2ca02c",
        "marker-size": "small"
      },
      "geometry": {
        "type": "Point",
        "coordinates": [
          74.793995316,
          13.345883869
        ]
      }
    },
    {
      "type": "Feature",
      "properties": {
        "name": "WP56 pass 29 pass_start",
        "role": "waypoint",
        "index": 56,
        "pass": 29,
        "kind": "pass_start",
        "direction": "A->B",
        "north_m": 11.282,
        "east_m": -1.879,
        "dist_from_a_m": 11.438,
        "inset_clearance_m": 0.0,
        "polygon_clearance_m": 0.2,
        "marker-color": "#2ca02c",
        "marker-size": "small"
      },
      "geometry": {
        "type": "Point",
        "coordinates": [
          74.793994656,
          13.345887351
        ]
      }
    },
    {
      "type": "Feature",
      "properties": {
        "name": "WP57 pass 29 pass_end",
        "role": "waypoint",
        "index": 57,
        "pass": 29,
        "kind": "pass_end",
        "direction": "A->B",
        "north_m": 11.948,
        "east_m": 1.6,
        "dist_from_a_m": 12.054,
        "inset_clearance_m": 0.0,
        "polygon_clearance_m": 0.2,
        "marker-color": "#2ca02c",
        "marker-size": "small"
      },
      "geometry": {
        "type": "Point",
        "coordinates": [
          74.794026776,
          13.345893327
        ]
      }
    },
    {
      "type": "Feature",
      "properties": {
        "name": "WP58 pass 30 pass_start",
        "role": "waypoint",
        "index": 58,
        "pass": 30,
        "kind": "pass_start",
        "direction": "B->A",
        "north_m": 12.33,
        "east_m": 1.502,
        "dist_from_a_m": 12.421,
        "inset_clearance_m": 0.0,
        "polygon_clearance_m": 0.2,
        "marker-color": "#2ca02c",
        "marker-size": "small"
      },
      "geometry": {
        "type": "Point",
        "coordinates": [
          74.794025865,
          13.345896763
        ]
      }
    },
    {
      "type": "Feature",
      "properties": {
        "name": "WP59 pass 30 pass_end",
        "role": "waypoint",
        "index": 59,
        "pass": 30,
        "kind": "pass_end",
        "direction": "B->A",
        "north_m": 11.67,
        "east_m": -1.95,
        "dist_from_a_m": 11.832,
        "inset_clearance_m": 0.0,
        "polygon_clearance_m": 0.2,
        "marker-color": "#2ca02c",
        "marker-size": "small"
      },
      "geometry": {
        "type": "Point",
        "coordinates": [
          74.793993995,
          13.345890834
        ]
      }
    },
    {
      "type": "Feature",
      "properties": {
        "name": "WP60 pass 31 pass_start",
        "role": "waypoint",
        "index": 60,
        "pass": 31,
        "kind": "pass_start",
        "direction": "A->B",
        "north_m": 12.058,
        "east_m": -2.022,
        "dist_from_a_m": 12.226,
        "inset_clearance_m": 0.0,
        "polygon_clearance_m": 0.2,
        "marker-color": "#2ca02c",
        "marker-size": "small"
      },
      "geometry": {
        "type": "Point",
        "coordinates": [
          74.793993335,
          13.345894316
        ]
      }
    },
    {
      "type": "Feature",
      "properties": {
        "name": "WP61 pass 31 pass_end",
        "role": "waypoint",
        "index": 61,
        "pass": 31,
        "kind": "pass_end",
        "direction": "A->B",
        "north_m": 12.713,
        "east_m": 1.403,
        "dist_from_a_m": 12.79,
        "inset_clearance_m": 0.0,
        "polygon_clearance_m": 0.2,
        "marker-color": "#2ca02c",
        "marker-size": "small"
      },
      "geometry": {
        "type": "Point",
        "coordinates": [
          74.794024955,
          13.345900199
        ]
      }
    },
    {
      "type": "Feature",
      "properties": {
        "name": "WP62 pass 32 pass_start",
        "role": "waypoint",
        "index": 62,
        "pass": 32,
        "kind": "pass_start",
        "direction": "B->A",
        "north_m": 13.095,
        "east_m": 1.305,
        "dist_from_a_m": 13.16,
        "inset_clearance_m": 0.0,
        "polygon_clearance_m": 0.2,
        "marker-color": "#2ca02c",
        "marker-size": "small"
      },
      "geometry": {
        "type": "Point",
        "coordinates": [
          74.794024045,
          13.345903635
        ]
      }
    },
    {
      "type": "Feature",
      "properties": {
        "name": "WP63 pass 32 pass_end",
        "role": "waypoint",
        "index": 63,
        "pass": 32,
        "kind": "pass_end",
        "direction": "B->A",
        "north_m": 12.445,
        "east_m": -2.093,
        "dist_from_a_m": 12.62,
        "inset_clearance_m": 0.0,
        "polygon_clearance_m": 0.2,
        "marker-color": "#2ca02c",
        "marker-size": "small"
      },
      "geometry": {
        "type": "Point",
        "coordinates": [
          74.793992675,
          13.345897798
        ]
      }
    },
    {
      "type": "Feature",
      "properties": {
        "name": "WP64 pass 33 pass_start",
        "role": "waypoint",
        "index": 64,
        "pass": 33,
        "kind": "pass_start",
        "direction": "A->B",
        "north_m": 12.993,
        "east_m": -1.325,
        "dist_from_a_m": 13.061,
        "inset_clearance_m": 0.0,
        "polygon_clearance_m": 0.2,
        "marker-color": "#2ca02c",
        "marker-size": "small"
      },
      "geometry": {
        "type": "Point",
        "coordinates": [
          74.793999762,
          13.345902722
        ]
      }
    },
    {
      "type": "Feature",
      "properties": {
        "name": "WP65 pass 33 pass_end",
        "role": "waypoint",
        "index": 65,
        "pass": 33,
        "kind": "pass_end",
        "direction": "A->B",
        "north_m": 13.478,
        "east_m": 1.206,
        "dist_from_a_m": 13.531,
        "inset_clearance_m": 0.0,
        "polygon_clearance_m": 0.2,
        "marker-color": "#2ca02c",
        "marker-size": "small"
      },
      "geometry": {
        "type": "Point",
        "coordinates": [
          74.794023134,
          13.34590707
        ]
      }
    },
    {
      "type": "Feature",
      "properties": {
        "name": "corner A",
        "role": "corner",
        "marker-color": "#d62728",
        "marker-size": "medium",
        "marker-symbol": "a"
      },
      "geometry": {
        "type": "Point",
        "coordinates": [
          74.794012,
          13.345786
        ]
      }
    },
    {
      "type": "Feature",
      "properties": {
        "name": "corner B",
        "role": "corner",
        "marker-color": "#d62728",
        "marker-size": "medium",
        "marker-symbol": "b"
      },
      "geometry": {
        "type": "Point",
        "coordinates": [
          74.794055,
          13.345794
        ]
      }
    },
    {
      "type": "Feature",
      "properties": {
        "name": "corner C",
        "role": "corner",
        "marker-color": "#d62728",
        "marker-size": "medium",
        "marker-symbol": "c"
      },
      "geometry": {
        "type": "Point",
        "coordinates": [
          74.794024,
          13.345911
        ]
      }
    },
    {
      "type": "Feature",
      "properties": {
        "name": "corner D",
        "role": "corner",
        "marker-color": "#d62728",
        "marker-size": "medium",
        "marker-symbol": "d"
      },
      "geometry": {
        "type": "Point",
        "coordinates": [
          74.79399,
          13.345902
        ]
      }
    }
  ]
}
